NORAD_CAT_ID,OBJECT_NAME,OBJECT_TYPE,EPOCH,MEAN_MOTION,ECCENTRICITY,INCLINATION,RA_OF_ASC_NODE,ARG_OF_PERICENTER,MEAN_ANOMALY,BSTAR,MEAN_MOTION_DOT,MEAN_MOTION_DDOT,TLE_LINE0,TLE_LINE1,TLE_LINE2,SEMIMAJOR_AXIS,PERIOD,APOGEE,PERIGEE,DECAYED
53796.0,STARLINK-4721,PAYLOAD,2023-01-31 13:06:31,15.08842025,0.00013,53.2181,300.6582,80.8369,279.277,3.1481e-05,2.13e-06,0.0,0 STARLINK-4721,1 53796U 22111Z   23031.54619907  .00000213  00000-0  31481-4 0  9994,2 53796  53.2181 300.6582 0001300  80.8369 279.2770 15.08842025 22939,6917.874,95.437,540.639,538.84,0.0
53796.0,STARLINK-4721,PAYLOAD,2023-01-31 19:28:04,15.08843334,0.0001259,53.2179,299.4677,88.6092,271.5045,7.6237e-06,-1.67e-06,0.0,0 STARLINK-4721,1 53796U 22111Z   23031.81115844 -.00000167  00000-0  76237-5 0  9993,2 53796  53.2179 299.4677 0001259  88.6092 271.5045 15.08843334 22976,6917.87,95.437,540.606,538.864,0.0
53796.0,STARLINK-4721,PAYLOAD,2023-02-01 00:14:13,15.08848127,0.0001149,53.2187,298.5751,94.5323,265.58,1.5855e-05,-3.5e-07,0.0,0 STARLINK-4721,1 53796U 22111Z   23032.00987377 -.00000035  00000-0  15855-4 0  9995,2 53796  53.2187 298.5751 0001149  94.5323 265.5800 15.08848127 22257,6917.856,95.437,540.515,538.926,0.0
53796.0,STARLINK-4721,PAYLOAD,2023-02-02 00:05:01,15.08834968,0.0001142,53.2174,294.1158,84.4728,275.6394,-4.1714e-05,-9.52e-06,0.0,0 STARLINK-4721,1 53796U 22111Z   23033.00348476 -.00000952  00000-0 -41714-4 0  9999,2 53796  53.2174 294.1158 0001142  84.4728 275.6394 15.08834968 22401,6917.896,95.438,540.551,538.971,0.0
53796.0,STARLINK-4721,PAYLOAD,2023-02-02 23:55:47,15.08843316,0.0001201,53.2172,289.6552,85.9733,274.1396,3.7837e-05,3.14e-06,0.0,0 STARLINK-4721,1 53796U 22111Z   23033.99707787  .00000314  00000-0  37837-4 0  9992,2 53796  53.2172 289.6552 0001201  85.9733 274.1396 15.08843316 22553,6917.87,95.437,540.566,538.904,0.0
53796.0,STARLINK-4721,PAYLOAD,2023-02-03 17:25:02,15.08826283,0.0001031,53.2181,286.3835,80.6365,279.4744,6.2482e-05,7.06e-06,0.0,0 STARLINK-4721,1 53796U 22111Z   23034.72572854  .00000706  00000-0  62482-4 0  9998,2 53796  53.2181 286.3835 0001031  80.6365 279.4744 15.08826283 22666,6917.922,95.438,540.501,539.074,0.0
53796.0,STARLINK-4721,PAYLOAD,2023-02-04 10:54:17,15.08836935,0.0001123,53.2173,283.113,91.876,268.2361,4.719e-05,4.63e-06,0.0,0 STARLINK-4721,1 53796U 22111Z   23035.45436520  .00000463  00000-0  47190-4 0  9997,2 53796  53.2173 283.1130 0001123  91.8760 268.2361 15.08836935 22773,6917.89,95.438,540.532,538.978,0.0
53796.0,STARLINK-4721,PAYLOAD,2023-02-04 22:01:59,15.08841606,0.0001005,53.2174,281.0315,88.5045,271.6063,-9.5811e-06,-4.4e-06,0.0,0 STARLINK-4721,1 53796U 22111Z   23035.91804493 -.00000440  00000-0 -95811-5 0  9997,2 53796  53.2174 281.0315 0001005  88.5045 271.6063 15.08841606 23593,6917.875,95.437,540.436,539.045,0.0
53796.0,STARLINK-4721,PAYLOAD,2023-02-05 10:45:04,15.08833996,7.8e-05,53.2175,278.6538,65.0366,295.0707,2.3233e-05,8.2e-07,0.0,0 STARLINK-4721,1 53796U 22111Z   23036.44796972  .00000082  00000-0  23233-4 0  9996,2 53796  53.2175 278.6538 0000780  65.0366 295.0707 15.08833996 23675,6917.899,95.438,540.303,539.224,0.0
53796.0,STARLINK-4721,PAYLOAD,2023-02-05 20:17:23,15.08830322,0.00011,53.2175,276.8686,85.2635,274.8483,3.812e-05,3.19e-06,0.0,0 STARLINK-4721,1 53796U 22111Z   23036.84541311  .00000319  00000-0  38120-4 0  9999,2 53796  53.2175 276.8686 0001100  85.2635 274.8483 15.08830322 22988,6917.91,95.438,540.536,539.014,0.0
53796.0,STARLINK-4721,PAYLOAD,2023-02-05 21:52:46,15.08831021,0.00011,53.2175,276.5713,83.9487,276.163,4.3026e-05,3.97e-06,0.0,0 STARLINK-4721,1 53796U 22111Z   23036.91165281  .00000397  00000-0  43026-4 0  9992,2 53796  53.2175 276.5713 0001100  83.9487 276.1630 15.08831021 23747,6917.908,95.438,540.534,539.012,0.0
53796.0,STARLINK-4721,PAYLOAD,2023-02-05 23:28:09,15.08855375,0.0001042,53.2172,276.2738,89.0818,271.0294,-0.00022875,-3.928e-05,0.0,0 STARLINK-4721,1 53796U 22111Z   23036.97788631 -.00003928  00000-0 -22875-3 0  9991,2 53796  53.2172 276.2738 0001042  89.0818 271.0294 15.08855375 23005,6917.833,95.437,540.419,538.978,0.0
53796.0,STARLINK-4721,PAYLOAD,2023-02-06 21:43:33,15.08844729,0.0001069,53.2171,272.1107,89.6557,270.4558,6.7389e-05,7.85e-06,0.0,0 STARLINK-4721,1 53796U 22111Z   23037.90524317  .00000785  00000-0  67389-4 0  9990,2 53796  53.2171 272.1107 0001069  89.6557 270.4558 15.08844729 23898,6917.866,95.437,540.47,538.991,0.0
53796.0,STARLINK-4721,PAYLOAD,2023-02-06 23:18:55,15.08850647,0.0001195,53.2172,271.8132,80.2598,279.8529,7.0584e-05,8.36e-06,0.0,0 STARLINK-4721,1 53796U 22111Z   23037.97147969  .00000836  00000-0  70584-4 0  9999,2 53796  53.2172 271.8132 0001195  80.2598 279.8529 15.08850647 23904,6917.848,95.437,540.54,538.886,0.0
53796.0,STARLINK-4721,PAYLOAD,2023-02-07 21:34:20,15.0883692,0.0001232,53.2171,267.6508,70.2156,289.8969,5.6227e-05,6.07e-06,0.0,0 STARLINK-4721,1 53796U 22111Z   23038.89884939  .00000607  00000-0  56227-4 0  9990,2 53796  53.2171 267.6508 0001232  70.2156 289.8969 15.08836920 23293,6917.89,95.438,540.607,538.903,0.0
53796.0,STARLINK-4721,PAYLOAD,2023-02-08 21:25:07,15.08844062,0.0001122,53.2176,263.1905,63.311,296.7996,-3.1807e-05,-7.94e-06,0.0,0 STARLINK-4721,1 53796U 22111Z   23039.89244860 -.00000794  00000-0 -31807-4 0  9990,2 53796  53.2176 263.1905 0001122  63.3110 296.7996 15.08844062 24194,6917.868,95.437,540.509,538.957,0.0
53796.0,STARLINK-4721,PAYLOAD,2023-02-09 00:35:53,15.08851747,9.74e-05,53.218,262.5939,73.5931,286.5169,-5.6659e-05,-1.19e-05,0.0,0 STARLINK-4721,1 53796U 22111Z   23040.02492310 -.00001190  00000-0 -56659-4 0  9995,2 53796  53.2180 262.5939 0000974  73.5931 286.5169 15.08851747 23463,6917.844,95.437,540.383,539.036,0.0
53796.0,STARLINK-4721,PAYLOAD,2023-02-09 21:15:54,15.0883718,9.93e-05,53.2176,258.7289,74.46,285.6501,3.0679e-05,2.01e-06,0.0,0 STARLINK-4721,1 53796U 22111Z   23040.88605083  .00000201  00000-0  30679-4 0  9996,2 53796  53.2176 258.7289 0000993  74.4600 285.6501 15.08837180 23596,6917.889,95.438,540.441,539.067,0.0
53796.0,STARLINK-4721,PAYLOAD,2023-02-10 00:26:40,15.08834336,9.14e-05,53.2183,258.1314,104.0842,256.0252,0.00018566,2.668e-05,0.0,0 STARLINK-4721,1 53796U 22111Z   23041.01852791  .00002668  00000-0  18566-3 0  9991,2 53796  53.2183 258.1314 0000914 104.0842 256.0252 15.08834336 24369,6917.898,95.438,540.395,539.13,0.0
53796.0,STARLINK-4721,PAYLOAD,2023-02-10 09:59:00,15.08830305,6.34e-05,53.2175,256.3482,55.637,304.4682,-7.8521e-05,-1.537e-05,0.0,0 STARLINK-4721,1 53796U 22111Z   23041.41597977 -.00001537  00000-0 -78521-4 0  9991,2 53796  53.2175 256.3482 0000634  55.6370 304.4682 15.08830305 23672,6917.91,95.438,540.214,539.336,0.0
53796.0,STARLINK-4721,PAYLOAD,2023-02-10 16:20:32,15.08838596,0.0001195,53.2165,255.1595,107.0767,253.0356,-1.46e-05,-5.2e-06,0.0,0 STARLINK-4721,1 53796U 22111Z   23041.68093270 -.00000520  00000-0 -14600-4 0  9996,2 53796  53.2165 255.1595 0001195 107.0767 253.0356 15.08838596 23710,6917.885,95.438,540.576,538.923,0.0
53796.0,STARLINK-4721,PAYLOAD,2023-02-10 21:06:41,15.08844301,0.0001002,53.2169,254.2679,93.7932,266.3174,3.0766e-05,2.02e-06,0.0,0 STARLINK-4721,1 53796U 22111Z   23041.87964776  .00000202  00000-0  30766-4 0  9991,2 53796  53.2169 254.2679 0001002  93.7932 266.3174 15.08844301 24491,6917.867,95.437,540.425,539.039,0.0
53796.0,STARLINK-4721,PAYLOAD,2023-02-11 09:49:47,15.08834293,9.71e-05,53.217,251.8895,91.1075,269.0028,4.2554e-05,3.89e-06,0.0,0 STARLINK-4721,1 53796U 22111Z   23042.40957392  .00000389  00000-0  42554-4 0  9991,2 53796  53.2170 251.8895 0000971  91.1075 269.0028 15.08834293 24576,6917.898,95.438,540.435,539.091,0.0
53796.0,STARLINK-4721,PAYLOAD,2023-02-11 20:57:29,15.08835487,9.32e-05,53.2171,249.8079,89.9741,270.1358,-9.9874e-06,-4.47e-06,0.0,0 STARLINK-4721,1 53796U 22111Z   23042.87325712 -.00000447  00000-0 -99874-5 0  9992,2 53796  53.2171 249.8079 0000932  89.9741 270.1358 15.08835487 23899,6917.894,95.438,540.404,539.114,0.0
53796.0,STARLINK-4721,PAYLOAD,2023-02-12 14:26:44,15.08815557,0.0001012,53.217,246.5369,95.9189,264.1919,0.00021177,3.082e-05,0.0,0 STARLINK-4721,1 53796U 22111Z   23043.60190447  .00003082  00000-0  21177-3 0  9994,2 53796  53.2170 246.5369 0001012  95.9189 264.1919 15.08815557 24003,6917.955,95.439,540.52,539.12,0.0
53796.0,STARLINK-4721,PAYLOAD,2023-02-12 22:23:39,15.08843175,0.000102,53.2169,245.05,96.867,263.2438,4.0626e-05,3.59e-06,0.0,0 STARLINK-4721,1 53796U 22111Z   23043.93309363  .00000359  00000-0  40626-4 0  9994,2 53796  53.2169 245.0500 0001020  96.8670 263.2438 15.08843175 24054,6917.871,95.437,540.441,539.03,0.0
53796.0,STARLINK-4721,PAYLOAD,2023-02-13 14:17:31,15.08833392,0.0001071,53.2175,242.0762,81.8285,278.2828,5.516e-05,5.9e-06,0.0,0 STARLINK-4721,1 53796U 22111Z   23044.59550061  .00000590  00000-0  55160-4 0  9996,2 53796  53.2175 242.0762 0001071  81.8285 278.2828 15.08833392 24150,6917.901,95.438,540.506,539.025,0.0
53796.0,STARLINK-4721,PAYLOAD,2023-02-13 22:14:26,15.08840518,0.0001244,53.2174,240.5892,79.2965,280.8167,6.7309e-05,7.84e-06,0.0,0 STARLINK-4721,1 53796U 22111Z   23044.92669660  .00000784  00000-0  67309-4 0  9992,2 53796  53.2174 240.5892 0001244  79.2965 280.8167 15.08840518 24203,6917.879,95.438,540.604,538.883,0.0
53796.0,STARLINK-4721,PAYLOAD,2023-02-14 07:46:45,15.08841351,0.0001248,53.2164,238.8052,84.125,275.9885,7.9293e-05,9.74e-06,0.0,0 STARLINK-4721,1 53796U 22111Z   23045.32413569  .00000974  00000-0  79293-4 0  9998,2 53796  53.2164 238.8052 0001248  84.1250 275.9885 15.08841351 25014,6917.876,95.437,540.605,538.878,0.0
53796.0,STARLINK-4721,PAYLOAD,2023-02-14 18:54:26,15.08844174,0.0001085,53.2168,236.7231,89.4524,270.6593,0.00011494,1.542e-05,0.0,0 STARLINK-4721,1 53796U 22111Z   23045.78781166  .00001542  00000-0  11494-3 0  9999,2 53796  53.2168 236.7231 0001085  89.4524 270.6593 15.08844174 25086,6917.868,95.437,540.483,538.982,0.0
